ONEWEB-0033             
1 45142U 20008M   24213.97336317  .00000094  00000+0  23311-3 0  9992
2 45142  87.8960 172.5954 0001842  84.9494 275.1844 13.10370221218475
ONEWEB-0035             
1 45143U 20008N   24213.92852771 -.00000443  00000+0 -13054-2 0  9997
2 45143  87.8972 172.5879 0001959  81.1212 279.0137 13.10375696218199
ONEWEB-0036             
1 45144U 20008P   24213.91858903 -.00000578  00000+0 -16925-2 0  9999
2 45144  87.8966 172.5450 0002332  83.7413 276.3980 13.10368747218628
ONEWEB-0038             
1 45145U 20008Q   24213.93556128 -.00000039  00000+0 -14472-3 0  9994
2 45145  87.8992 157.4670 0002279  59.1041 301.0310 13.11417545220514
ONEWEB-0039             
1 45146U 20008R   24214.12939245 -.00000080  00000+0 -26645-3 0  9993
2 45146  87.8963 172.5218 0002480  78.5909 281.5497 13.10369899219222
ONEWEB-0040             
1 45147U 20008S   24213.97004442  .00000194  00000+0  51858-3 0  9996
2 45147  87.8969 172.5577 0002099  79.6405 280.4959 13.10369680218123
ONEWEB-0043             
1 45149U 20008U   24213.97170414  .00000087  00000+0  21420-3 0  9994
2 45149  87.8965 172.5618 0002582  78.8222 281.3196 13.10369923219227
ONEWEB-0044             
1 45150U 20008V   24213.92358771 -.00000475  00000+0 -13966-2 0  9993
2 45150  87.8969 172.5660 0002383  79.3270 280.8126 13.10379208218737
